{"type":"Feature","properties":{"name":"LAND_MASK"},"geometry":{"type":"MultiPolygon","coordinates":[[[[-63.8,-54.8],[-64.5,-54.9],[-64.8,-54.8],[-63.8,-54.8]]],[[[-65.1,-54.6],[-65.3,-54.9],[-66.5,-55.1],[-66.8,-54.9],[-68.6,-54.8],[-68.6,-54.5],[-68.6,-54.2],[-68.6,-54.0],[-68.6,-53.7],[-68.6,-53.4],[-68.6,-53.2],[-68.1,-53.3],[-67.3,-54.1],[-65.8,-54.7],[-65.1,-54.6]]],[[[-68.6,-52.6],[-68.2,-53.1],[-68.6,-53.2],[-68.6,-52.9],[-68.6,-52.6]]],[[[-62.2,-40.6],[-62.0,-40.4],[-62.0,-40.5],[-62.2,-40.6]]],[[[-62.0,-40.1],[-62.0,-40.3],[-62.1,-40.3],[-62.0,-40.1]]],[[[-62.3,-39.2],[-62.0,-39.3],[-62.1,-39.4],[-62.2,-39.4],[-62.3,-39.3],[-62.3,-39.2]]],[[[-61.9,-39.2],[-62.1,-39.1],[-62.0,-39.1],[-61.9,-39.1],[-61.9,-39.2]]],[[[-62.1,-39.0],[-62.0,-39.0],[-62.0,-39.1],[-62.1,-39.0]]],[[[-69.1,-51.6],[-69.2,-51.6],[-69.3,-51.6],[-69.4,-51.6],[-69.5,-51.6],[-69.6,-51.6],[-69.2,-51.7],[-68.9,-51.6],[-68.9,-51.8],[-68.8,-51.8],[-68.8,-51.9],[-68.4,-52.3],[-68.4,-52.4],[-69.8,-52.0],[-72.0,-52.0],[-72.1,-51.7],[-72.5,-51.6],[-72.3,-51.5],[-72.3,-50.6],[-73.1,-50.8],[-73.6,-49.9],[-73.1,-49.6],[-73.2,-49.2],[-72.3,-48.4],[-72.5,-47.7],[-71.9,-47.2],[-72.0,-46.8],[-71.7,-46.7],[-71.9,-46.1],[-71.6,-45.9],[-71.8,-45.6],[-71.3,-45.2],[-72.1,-44.8],[-71.3,-44.8],[-71.1,-44.6],[-71.2,-44.4],[-71.9,-44.4],[-71.7,-43.6],[-72.0,-43.4],[-71.7,-43.2],[-72.1,-43.1],[-72.1,-42.2],[-71.7,-42.1],[-72.0,-40.7],[-71.7,-40.4],[-71.7,-39.6],[-71.4,-39.4],[-71.4,-38.9],[-70.8,-38.6],[-71.2,-37.7],[-71.2,-36.8],[-71.1,-36.5],[-70.4,-36.1],[-70.4,-35.3],[-70.6,-35.3],[-70.1,-34.3],[-69.8,-34.2],[-69.8,-33.3],[-70.1,-33.2],[-70.0,-32.9],[-70.4,-32.1],[-70.2,-31.9],[-70.5,-31.8],[-70.6,-31.3],[-70.3,-31.0],[-70.2,-30.4],[-69.8,-30.2],[-70.0,-30.1],[-70.0,-29.2],[-69.8,-29.1],[-69.7,-28.4],[-69.2,-28.0],[-68.9,-27.2],[-68.3,-27.0],[-68.6,-26.6],[-68.4,-26.2],[-68.6,-25.7],[-68.4,-25.0],[-68.6,-24.8],[-68.3,-24.4],[-67.3,-24.0],[-67.0,-23.1],[-67.2,-22.8],[-67.133,-22.733],[-67.8,-22.9],[-68.2,-21.3],[-68.6,-20.9],[-68.5,-20.6],[-68.8,-20.5],[-68.8,-20.1],[-68.5,-19.9],[-68.7,-19.7],[-68.4,-19.4],[-69.0,-19.0],[-69.1,-18.0],[-69.3,-18.0],[-69.567,-17.533],[-69.9,-17.7],[-69.8,-18.1],[-70.0,-18.3],[-70.5,-18.3],[-72.4,-16.7],[-75.2,-15.4],[-76.3,-14.2],[-76.3,-13.9],[-76.4,-13.9],[-76.4,-13.8],[-76.2,-13.8],[-76.2,-13.4],[-77.2,-12.1],[-77.2,-11.6],[-77.7,-11.2],[-77.6,-11.0],[-78.2,-10.1],[-78.4,-9.3],[-79.0,-8.2],[-79.4,-7.9],[-79.6,-7.2],[-80.0,-6.7],[-81.2,-6.0],[-81.1,-5.8],[-80.9,-5.9],[-80.9,-5.5],[-81.2,-5.3],[-81.3,-4.2],[-80.3,-3.4],[-80.2,-3.9],[-80.5,-4.0],[-80.3,-4.2],[-80.5,-4.4],[-79.7,-4.4],[-79.3,-5.0],[-79.0,-5.0],[-78.6,-4.5],[-78.4,-3.4],[-78.2,-3.5],[-77.9,-3.0],[-76.7,-2.6],[-75.6,-1.6],[-75.4,-0.9],[-75.2,-1.0],[-75.6,-0.1],[-75.388,-0.058],[-75.9,0.1],[-76.3,0.5],[-76.4,0.2],[-77.2,0.3],[-77.5,0.7],[-79.0,1.7],[-78.5,1.9],[-78.7,2.0],[-78.5,2.6],[-78.3,2.5],[-78.2,2.7],[-78.1,2.7],[-78.1,2.6],[-78.0,2.7],[-77.9,2.6],[-77.8,2.6],[-77.6,2.8],[-77.7,3.1],[-77.5,3.4],[-77.3,3.3],[-77.0,3.9],[-77.3,3.8],[-77.2,4.1],[-77.4,3.9],[-77.2,4.3],[-77.3,4.3],[-77.4,4.3],[-77.3,5.2],[-77.6,5.5],[-77.2,5.7],[-77.5,6.2],[-77.3,6.6],[-77.9,7.2],[-77.8,7.7],[-77.6,7.5],[-77.2,7.9],[-77.4,8.7],[-76.8,8.1],[-76.9,7.9],[-76.7,7.9],[-76.9,8.6],[-75.6,9.5],[-75.5,10.2],[-75.7,10.1],[-75.7,10.2],[-75.5,10.3],[-75.5,10.4],[-75.6,10.4],[-75.4,10.7],[-75.2,10.7],[-75.3,10.8],[-74.7,11.1],[-74.3,11.0],[-74.6,10.9],[-74.4,10.7],[-74.1,11.4],[-73.2,11.3],[-72.2,11.9],[-72.1,12.3],[-71.3,12.4],[-71.1,12.0],[-71.4,11.9],[-72.0,11.6],[-71.6,11.0],[-71.7,11.0],[-71.8,11.0],[-71.6,10.4],[-71.8,10.4],[-72.1,9.8],[-71.7,9.4],[-71.8,9.1],[-71.3,9.1],[-71.0,9.8],[-71.6,10.8],[-70.2,11.5],[-70.0,11.4],[-70.2,11.6],[-70.3,11.8],[-69.9,12.2],[-69.7,11.5],[-68.9,11.5],[-68.3,11.1],[-68.2,10.5],[-66.3,10.7],[-66.0,10.6],[-66.1,10.5],[-65.9,10.3],[-65.8,10.2],[-65.1,10.0],[-64.2,10.5],[-64.1,10.4],[-63.7,10.5],[-63.8,10.6],[-64.3,10.5],[-64.3,10.7],[-63.5,10.6],[-62.7,10.8],[-61.8,10.7],[-63.0,10.5],[-62.8,10.5],[-62.7,10.5],[-62.6,10.3],[-62.7,10.3],[-62.7,10.2],[-62.6,10.2],[-63.0,10.1],[-62.7,10.0],[-62.5,10.2],[-62.5,10.0],[-62.3,9.7],[-62.2,10.0],[-62.0,10.0],[-61.9,9.8],[-61.8,9.8],[-61.6,9.9],[-60.8,9.4],[-61.1,9.1],[-61.0,9.2],[-61.0,9.1],[-61.0,9.0],[-61.1,9.0],[-61.1,8.9],[-61.1,8.8],[-61.2,8.6],[-61.3,8.6],[-61.5,8.6],[-61.6,8.6],[-61.7,8.6],[-61.6,8.5],[-61.1,8.4],[-61.1,8.5],[-61.0,8.5],[-61.0,8.6],[-60.5,8.5],[-60.0,8.6],[-58.6,7.6],[-58.7,6.4],[-58.3,6.9],[-57.2,6.2],[-57.1,6.0],[-55.9,5.7],[-55.9,6.0],[-55.1,5.8],[-54.9,5.9],[-55.2,6.0],[-54.2,5.9],[-54.0,5.6],[-54.5,5.0],[-54.5,4.5],[-54.4,4.0],[-54.0,3.6],[-54.5,2.3],[-54.7,2.42],[-54.7,2.32],[-54.56,2.31],[-54.48,2.21],[-54.15,2.11],[-53.76,2.37],[-53.75,2.31],[-53.55,2.25],[-53.33,2.35],[-53.23,2.25],[-53.28,2.2],[-52.92,2.19],[-52.59,2.5],[-52.36,3.15],[-52.23,3.26],[-51.78,3.98],[-51.63,4.07],[-51.57,4.24],[-51.44,3.93],[-51.56,4.36],[-51.49,4.43],[-51.22,4.17],[-51.18,3.65],[-51.14,3.87],[-51.08,3.88],[-51.1,3.45],[-51.02,3.04],[-50.68,2.17],[-50.79,2.16],[-50.78,2.07],[-50.62,2.11],[-50.52,1.87],[-50.43,1.8],[-50.16,1.82],[-49.92,1.69],[-49.88,1.31],[-50.15,1.21],[-49.92,1.22],[-49.89,1.17],[-49.98,1.07],[-50.03,1.11],[-50.06,1.02],[-50.47,0.65],[-50.79,0.17],[-50.93,0.16],[-51.1,-0.04],[-51.33,-0.08],[-51.25,-0.13],[-51.45,-0.49],[-51.58,-0.53],[-51.53,-0.55],[-51.7,-0.75],[-51.71,-1.02],[-51.93,-1.18],[-51.93,-1.34],[-52.07,-1.41],[-52.25,-1.35],[-52.71,-1.6],[-52.28,-1.52],[-52.23,-1.59],[-52.26,-1.7],[-52.2,-1.69],[-51.28,-1.23],[-51.0,-1.01],[-51.0,-0.92],[-50.94,-0.96],[-50.94,-0.91],[-50.84,-0.91],[-50.83,-1.06],[-50.96,-1.13],[-50.83,-1.21],[-50.82,-1.44],[-50.65,-1.74],[-50.74,-1.74],[-50.71,-1.79],[-50.79,-1.9],[-50.88,-1.85],[-50.84,-1.96],[-50.61,-1.81],[-50.46,-1.94],[-50.48,-1.98],[-50.44,-1.94],[-50.42,-2.07],[-50.28,-1.89],[-50.16,-1.92],[-50.14,-1.86],[-50.0,-1.82],[-49.87,-1.89],[-49.89,-2.09],[-49.85,-2.05],[-49.81,-2.11],[-49.85,-1.9],[-49.83,-1.95],[-49.81,-1.9],[-49.65,-1.92],[-49.59,-2.01],[-49.63,-1.87],[-49.54,-1.86],[-49.49,-1.76],[-49.42,-1.78],[-49.46,-1.84],[-49.45,-1.87],[-49.37,-1.91],[-49.38,-1.99],[-49.54,-2.5],[-49.66,-2.68],[-49.48,-2.56],[-49.23,-1.95],[-48.97,-1.6],[-48.86,-1.56],[-49.03,-1.85],[-48.93,-1.79],[-48.66,-1.38],[-48.54,-1.58],[-48.42,-1.65],[-48.48,-1.51],[-48.33,-1.47],[-48.5,-1.46],[-48.48,-1.28],[-48.44,-1.22],[-48.43,-1.3],[-48.33,-1.31],[-48.31,-1.19],[-48.25,-1.19],[-48.28,-1.13],[-48.22,-1.11],[-48.3,-1.06],[-48.19,-1.02],[-48.14,-0.91],[-48.16,-0.8],[-48.04,-0.66],[-47.96,-0.78],[-47.87,-0.67],[-47.8,-0.69],[-47.81,-0.57],[-47.73,-0.64],[-47.73,-0.76],[-47.6,-0.68],[-47.57,-0.58],[-47.5,-0.76],[-47.39,-0.81],[-47.44,-0.7],[-47.47,-0.73],[-47.46,-0.59],[-47.4,-0.59],[-47.41,-0.61],[-47.41,-0.63],[-47.41,-0.66],[-47.41,-0.68],[-47.29,-0.59],[-47.26,-0.68],[-47.24,-0.62],[-47.19,-0.66],[-47.24,-0.72],[-47.16,-0.68],[-47.19,-0.77],[-47.14,-0.8],[-47.07,-0.68],[-47.06,-0.87],[-46.97,-0.7],[-46.95,-0.9],[-46.82,-0.71],[-46.79,-0.89],[-46.76,-0.82],[-46.71,-0.88],[-46.75,-0.94],[-46.7,-0.88],[-46.69,-0.83],[-46.63,-0.86],[-46.66,-0.8],[-46.61,-0.81],[-46.62,-0.94],[-46.67,-0.92],[-46.74,-0.98],[-46.75,-1.02],[-46.43,-0.87],[-46.48,-1.05],[-46.36,-1.01],[-46.36,-1.08],[-46.32,-1.02],[-46.32,-1.11],[-46.3,-1.03],[-46.25,-1.09],[-46.28,-0.99],[-46.2,-0.91],[-46.17,-0.96],[-46.26,-1.18],[-46.14,-1.11],[-46.15,-1.18],[-46.1,-1.07],[-46.1,-1.2],[-46.05,-1.16],[-46.05,-1.21],[-45.96,-1.06],[-46.0,-1.2],[-45.94,-1.25],[-45.87,-1.06],[-45.9,-1.26],[-45.84,-1.2],[-45.84,-1.28],[-45.81,-1.33],[-45.72,-1.13],[-45.73,-1.25],[-45.69,-1.2],[-45.65,-1.27],[-45.68,-1.37],[-45.54,-1.27],[-45.53,-1.42],[-45.42,-1.29],[-45.54,-1.49],[-45.46,-1.55],[-45.33,-1.31],[-45.3,-1.42],[-45.4,-1.56],[-45.34,-1.58],[-45.34,-1.74],[-45.22,-1.67],[-45.26,-1.61],[-45.16,-1.48],[-45.06,-1.43],[-44.97,-1.55],[-45.02,-1.58],[-45.02,-1.6],[-44.97,-1.59],[-44.87,-1.42],[-44.93,-1.66],[-44.89,-1.6],[-44.85,-1.64],[-44.83,-1.63],[-44.84,-1.57],[-44.79,-1.62],[-44.81,-1.66],[-44.8,-1.71],[-44.78,-1.72],[-44.773,-1.72],[-44.78,-1.7],[-44.71,-1.72],[-44.81,-1.81],[-44.68,-1.81],[-44.65,-1.72],[-44.6,-1.74],[-44.66,-1.84],[-44.53,-1.83],[-44.59,-1.9],[-44.51,-1.9],[-44.49,-2.0],[-44.62,-2.04],[-44.49,-2.05],[-44.65,-2.16],[-44.59,-2.17],[-44.69,-2.27],[-44.75,-2.25],[-44.82,-2.28],[-44.67,-2.27],[-44.72,-2.4],[-44.66,-2.36],[-44.66,-2.4],[-44.66,-2.42],[-44.65,-2.43],[-44.63,-2.27],[-44.46,-2.14],[-44.36,-2.33],[-44.43,-2.41],[-44.54,-2.38],[-44.52,-2.5],[-44.66,-2.59],[-44.54,-2.54],[-44.69,-2.92],[-44.62,-3.05],[-44.79,-3.21],[-44.8,-3.3],[-44.43,-2.95],[-44.37,-2.55],[-44.29,-2.58],[-44.29,-2.48],[-44.03,-2.42],[-44.1,-2.46],[-44.03,-2.51],[-44.14,-2.67],[-44.34,-2.78],[-44.3,-2.83],[-44.19,-2.76],[-44.2,-2.87],[-44.11,-2.75],[-44.07,-2.8],[-43.92,-2.55],[-43.88,-2.63],[-43.88,-2.57],[-43.72,-2.48],[-43.72,-2.56],[-43.66,-2.55],[-43.68,-2.53],[-43.67,-2.48],[-43.54,-2.53],[-43.54,-2.44],[-43.45,-2.55],[-43.46,-2.44],[-43.41,-2.46],[-43.49,-2.4],[-43.45,-2.34],[-42.7,-2.56],[-42.45,-2.75],[-42.26,-2.76],[-42.24,-2.83],[-41.94,-2.84],[-42.0,-2.72],[-41.82,-2.73],[-41.84,-2.77],[-41.81,-2.74],[-41.69,-2.88],[-41.34,-2.92],[-41.24,-3.02],[-41.32,-2.9],[-41.08,-2.92],[-41.1,-2.88],[-40.83,-2.88],[-40.5,-2.79],[-39.99,-2.85],[-39.73,-3.04],[-39.61,-3.04],[-39.0,-3.39],[-38.66,-3.68],[-38.48,-3.7],[-38.03,-4.24],[-37.77,-4.4],[-37.61,-4.61],[-37.29,-4.72],[-37.18,-4.91],[-36.9,-4.94],[-36.76,-5.07],[-36.54,-5.13],[-36.58,-5.08],[-36.13,-5.1],[-36.0,-5.05],[-35.51,-5.14],[-35.39,-5.24],[-35.22,-5.58],[-35.1,-6.06],[-35.09,-6.19],[-35.12,-6.16],[-35.15,-6.22],[-35.04,-6.23],[-34.94,-6.79],[-34.86,-6.91],[-34.91,-7.13],[-34.84,-6.97],[-34.79,-7.18],[-34.8,-7.51],[-34.93,-7.56],[-34.81,-7.61],[-34.91,-7.73],[-34.87,-7.71],[-34.89,-7.76],[-34.89,-7.8],[-34.81,-7.93],[-34.85,-8.07],[-34.93,-8.03],[-34.88,-8.11],[-34.94,-8.35],[-35.15,-8.91],[-35.39,-9.31],[-35.7,-9.67],[-35.78,-9.7],[-35.8,-9.58],[-35.79,-9.68],[-35.86,-9.73],[-35.91,-9.62],[-35.96,-9.61],[-35.87,-9.76],[-35.81,-9.74],[-36.42,-10.51],[-36.58,-10.55],[-36.9,-10.77],[-37.12,-11.12],[-37.28,-11.02],[-37.15,-11.19],[-37.33,-11.42],[-37.4,-11.4],[-37.27,-11.25],[-37.3,-11.19],[-37.31,-11.24],[-37.34,-11.18],[-37.32,-11.27],[-37.41,-11.4],[-37.47,-11.36],[-37.4,-11.44],[-37.49,-11.52],[-37.36,-11.45],[-37.65,-12.05],[-38.32,-12.94],[-38.53,-13.02],[-38.48,-12.94],[-38.51,-12.72],[-38.63,-12.7],[-38.69,-12.57],[-38.81,-12.84],[-38.86,-12.82],[-38.88,-12.72],[-38.85,-12.67],[-38.86,-12.65],[-38.92,-12.74],[-38.83,-12.87],[-38.72,-12.87],[-38.9,-13.08],[-38.81,-13.15],[-38.96,-13.26],[-38.95,-13.37],[-39.04,-13.33],[-39.12,-13.6],[-39.06,-13.49],[-39.01,-13.5],[-38.98,-13.84],[-39.09,-13.71],[-39.13,-13.71],[-39.15,-13.74],[-38.99,-13.86],[-39.07,-13.87],[-38.98,-14.05],[-39.07,-14.08],[-39.08,-14.13],[-39.04,-14.18],[-39.06,-14.11],[-38.96,-14.07],[-38.99,-13.93],[-38.93,-13.9],[-38.92,-14.0],[-39.07,-14.67],[-38.86,-15.84],[-39.21,-17.16],[-39.14,-17.68],[-39.28,-17.87],[-39.45,-17.95],[-39.66,-18.27],[-39.74,-18.68],[-39.7,-19.38],[-39.81,-19.64],[-40.03,-19.76],[-40.16,-19.96],[-40.23,-20.27],[-40.37,-20.23],[-40.37,-20.32],[-40.26,-20.32],[-40.35,-20.5],[-40.58,-20.8],[-40.76,-20.86],[-41.06,-21.48],[-40.97,-21.99],[-41.24,-22.15],[-41.67,-22.28],[-41.97,-22.54],[-41.99,-22.7],[-41.94,-22.77],[-41.87,-22.75],[-42.03,-22.89],[-42.01,-22.98],[-42.53,-22.93],[-43.03,-22.97],[-43.13,-22.92],[-43.03,-22.78],[-43.03,-22.67],[-43.08,-22.67],[-43.28,-22.77],[-43.15,-22.93],[-43.22,-23.0],[-43.99,-23.1],[-43.99,-23.04],[-43.6,-23.01],[-43.85,-22.89],[-44.06,-22.94],[-44.18,-23.05],[-44.33,-23.02],[-44.33,-22.92],[-44.46,-23.01],[-44.66,-23.04],[-44.71,-23.21],[-44.65,-23.19],[-44.65,-23.28],[-44.56,-23.23],[-44.5,-23.3],[-44.83,-23.39],[-44.92,-23.35],[-45.04,-23.41],[-45.01,-23.46],[-45.07,-23.52],[-45.15,-23.49],[-45.21,-23.58],[-45.41,-23.62],[-45.43,-23.83],[-45.96,-23.78],[-46.15,-23.84],[-46.24,-23.91],[-46.11,-23.86],[-46.17,-23.98],[-46.29,-24.02],[-46.32,-24.02],[-46.28,-23.99],[-46.3,-23.93],[-46.39,-23.87],[-46.45,-23.94],[-46.37,-24.02],[-46.94,-24.27],[-47.0,-24.41],[-47.56,-24.71],[-47.83,-24.89],[-47.96,-25.05],[-48.02,-25.01],[-48.01,-25.07],[-47.89,-25.06],[-47.92,-25.16],[-48.21,-25.46],[-48.25,-25.41],[-48.14,-25.27],[-48.28,-25.29],[-48.33,-25.36],[-48.33,-25.23],[-48.35,-25.3],[-48.46,-25.25],[-48.43,-25.32],[-48.5,-25.34],[-48.41,-25.41],[-48.47,-25.48],[-48.74,-25.35],[-48.71,-25.5],[-48.36,-25.57],[-48.54,-25.85],[-48.6,-25.8],[-48.58,-25.85],[-48.77,-25.87],[-48.56,-25.87],[-48.58,-26.17],[-48.69,-26.24],[-48.8,-26.07],[-48.8,-26.3],[-48.61,-26.44],[-48.68,-26.59],[-48.68,-26.73],[-48.58,-26.77],[-48.63,-26.85],[-48.61,-27.1],[-48.58,-27.16],[-48.48,-27.15],[-48.49,-27.22],[-48.54,-27.18],[-48.62,-27.24],[-48.55,-27.39],[-48.65,-27.48],[-48.58,-27.58],[-48.65,-27.65],[-48.57,-27.83],[-48.64,-28.23],[-48.76,-28.49],[-48.79,-28.37],[-48.87,-28.35],[-48.85,-28.48],[-48.76,-28.53],[-49.34,-28.92],[-49.81,-29.44],[-50.05,-29.81],[-50.32,-30.46],[-50.88,-31.22],[-51.56,-31.78],[-51.89,-31.95],[-52.08,-32.17],[-52.01,-31.95],[-52.09,-31.83],[-51.88,-31.87],[-51.83,-31.8],[-51.67,-31.77],[-51.5,-31.57],[-51.46,-31.62],[-51.42,-31.49],[-51.38,-31.53],[-51.24,-31.46],[-51.16,-31.29],[-51.16,-31.08],[-51.01,-31.06],[-50.98,-31.14],[-50.98,-30.89],[-50.76,-30.82],[-50.69,-30.73],[-50.73,-30.36],[-50.61,-30.49],[-50.57,-30.46],[-50.54,-30.27],[-50.6,-30.19],[-50.68,-30.22],[-50.67,-30.29],[-50.9,-30.31],[-50.92,-30.44],[-51.03,-30.38],[-51.02,-30.26],[-51.24,-30.18],[-51.24,-30.04],[-51.29,-30.01],[-51.33,-30.22],[-51.2,-30.29],[-51.19,-30.36],[-51.09,-30.34],[-51.25,-30.46],[-51.28,-30.8],[-51.32,-30.64],[-51.38,-30.64],[-51.36,-30.88],[-51.46,-30.89],[-51.49,-30.97],[-51.44,-31.08],[-51.62,-31.14],[-51.64,-31.26],[-51.96,-31.33],[-52.0,-31.64],[-52.07,-31.55],[-52.06,-31.67],[-52.22,-31.74],[-52.25,-31.86],[-52.13,-31.93],[-52.24,-31.97],[-52.26,-32.05],[-52.21,-32.09],[-52.08,-32.03],[-52.17,-32.1],[-52.09,-32.07],[-52.09,-32.17],[-52.23,-32.25],[-52.38,-32.5],[-52.64,-33.14],[-53.38,-33.74],[-53.5,-33.672],[-53.5,-34.1],[-54.1,-34.7],[-54.3,-34.6],[-54.9,-35.0],[-55.3,-34.8],[-56.4,-34.9],[-57.2,-34.4],[-57.7,-34.4],[-57.7,-34.5],[-57.8,-34.5],[-57.9,-34.5],[-58.4,-34.0],[-58.4,-33.225],[-58.5,-33.3],[-58.4,-34.3],[-58.5,-34.3],[-58.6,-34.3],[-58.2,-34.8],[-57.2,-35.2],[-57.1,-35.5],[-57.4,-35.7],[-57.4,-36.0],[-56.9,-36.4],[-56.7,-36.3],[-56.7,-36.9],[-57.5,-37.8],[-57.5,-38.1],[-58.6,-38.6],[-60.9,-39.0],[-62.4,-38.8],[-62.3,-39.3],[-62.1,-39.8],[-62.5,-40.2],[-62.2,-40.6],[-62.3,-40.9],[-63.1,-41.2],[-63.8,-41.2],[-64.8,-40.7],[-65.2,-40.9],[-65.1,-42.0],[-64.5,-42.2],[-64.6,-42.4],[-64.1,-42.4],[-64.3,-42.2],[-63.7,-42.1],[-63.6,-42.8],[-64.1,-42.9],[-64.3,-42.5],[-64.9,-42.6],[-65.0,-42.8],[-64.3,-43.0],[-64.8,-43.1],[-65.3,-43.6],[-65.2,-44.4],[-65.7,-44.7],[-65.5,-44.9],[-65.7,-45.1],[-66.4,-45.0],[-66.9,-45.2],[-67.5,-45.8],[-67.6,-46.3],[-67.4,-46.6],[-66.6,-47.1],[-65.8,-47.1],[-65.7,-47.5],[-65.9,-47.8],[-65.9,-48.1],[-67.6,-49.0],[-67.8,-50.0],[-68.4,-50.1],[-68.3,-50.1],[-68.9,-50.3],[-69.1,-50.9],[-69.4,-51.0],[-69.1,-51.1],[-69.0,-51.6],[-69.1,-51.6]],[[-69.8,11.4],[-69.8,11.7],[-70.2,11.6],[-69.8,11.4]],[[-62.8,10.4],[-62.9,10.4],[-63.0,10.4],[-63.0,10.3],[-62.7,10.4],[-62.8,10.5],[-62.8,10.4]],[[-62.2,9.9],[-62.1,9.9],[-62.0,9.9],[-62.2,10.0],[-62.2,9.9]],[[-61.7,9.6],[-61.7,9.7],[-61.8,9.8],[-61.7,9.6]],[[-44.773,-1.722],[-44.77,-1.72],[-44.773,-1.72],[-44.773,-1.722]],[[-44.79,-1.74],[-44.8,-1.75],[-44.82,-1.75],[-44.82,-1.77],[-44.77,-1.74],[-44.77,-1.73],[-44.773,-1.722],[-44.79,-1.74]],[[-66.0,-47.7],[-66.2,-47.8],[-65.9,-47.8],[-66.0,-47.7]],[[-66.4,-47.9],[-66.3,-47.9],[-66.2,-47.8],[-66.4,-47.9]],[[-68.4,-50.0],[-68.5,-50.0],[-68.5,-50.1],[-68.4,-50.1],[-68.4,-50.0]],[[-68.5,-49.9],[-68.6,-49.8],[-68.6,-50.0],[-68.5,-50.0],[-68.5,-49.9]],[[-68.7,-49.7],[-68.7,-49.8],[-68.6,-49.8],[-68.7,-49.7]],[[-59.8,8.2],[-59.8,8.3],[-59.9,8.4],[-59.8,8.2]],[[-61.4,6.0],[-61.358,5.942],[-61.1,6.2],[-61.4,6.0]],[[-60.613,4.918],[-60.66,5.17],[-60.74,5.2],[-60.45,5.17],[-60.21,5.27],[-60.026,5.126],[-60.2,5.3],[-60.7,5.2],[-61.133,5.633],[-60.613,4.918]],[[-59.748,4.413],[-59.8,4.5],[-59.929,4.5],[-59.748,4.413]],[[-59.74,4.2],[-59.65,4.13],[-59.6,3.97],[-59.546,3.954],[-59.5,4.0],[-59.709,4.348],[-59.74,4.2]],[[-59.82,3.36],[-59.861,3.239],[-59.8,3.3],[-59.82,3.36],[-59.82,3.36]],[[-59.99,2.86],[-60.0,2.67],[-59.91,2.38],[-59.834,2.327],[-59.965,2.935],[-59.99,2.86]],[[-59.76,1.86],[-59.733,1.855],[-59.755,1.957],[-59.76,1.86]],[[-59.26,1.39],[-59.01,1.33],[-58.85,1.19],[-58.773,1.236],[-59.401,1.551],[-59.26,1.39]],[[-58.52,1.27],[-58.5,1.46],[-58.41,1.47],[-58.32,1.6],[-58.07,1.51],[-57.99,1.57],[-57.99,1.646],[-58.4,1.6],[-58.642,1.277],[-58.52,1.27]],[[-57.32,1.98],[-57.24,1.95],[-57.187,1.976],[-57.4,2.0],[-57.459,1.824],[-57.32,1.98]],[[-57.04,1.93],[-56.81,1.87],[-56.611,1.912],[-57.062,1.962],[-57.04,1.93]],[[-55.95,1.85],[-55.943,1.9],[-56.244,1.9],[-55.95,1.85]],[[-55.92,2.05],[-55.926,2.055],[-55.922,2.034],[-55.92,2.05]],[[-55.987,2.498],[-56.0,2.5],[-55.995,2.467],[-55.987,2.498]],[[-55.72,2.4],[-55.515,2.419],[-55.88,2.48],[-55.72,2.4]],[[-55.12,2.52],[-54.989,2.594],[-55.0,2.6],[-55.135,2.532],[-55.12,2.52]],[[-54.98,2.54],[-54.88,2.45],[-54.75,2.45],[-54.968,2.581],[-54.98,2.54]],[[-60.72,4.78],[-60.628,4.88],[-60.836,4.735],[-60.72,4.78]],[[-60.98,4.53],[-60.913,4.681],[-61.135,4.525],[-60.98,4.53]],[[-62.77,4.02],[-62.56,4.04],[-62.54,4.13],[-62.43,4.18],[-62.15,4.09],[-62.04,4.16],[-61.89,4.15],[-61.825,4.2],[-62.5,4.2],[-62.77,4.02]],[[-62.8,3.624],[-62.75,3.66],[-62.77,4.02],[-62.8,4.0],[-62.8,3.624]],[[-64.053,3.907],[-64.04,3.88],[-63.67,3.95],[-63.51,3.85],[-63.43,3.97],[-63.35,3.96],[-62.98,3.58],[-62.89,3.56],[-62.818,3.612],[-63.4,4.0],[-64.053,3.907]],[[-64.8,4.3],[-64.771,4.266],[-64.7,4.26],[-64.59,4.12],[-64.15,4.11],[-64.1,4.005],[-64.1,4.1],[-64.8,4.3]],[[-64.046,2.492],[-64.0,2.73],[-64.146,3.01],[-64.1,2.5],[-64.046,2.492]],[[-63.4,2.18],[-63.37,2.27],[-63.38,2.42],[-63.715,2.445],[-63.4,2.4],[-63.4,2.18]],[[-64.035,1.931],[-63.78,1.97],[-63.661,2.056],[-64.0,2.0],[-64.035,1.931]],[[-64.09,1.62],[-64.042,1.915],[-64.283,1.435],[-64.09,1.62]],[[-64.35,1.37],[-64.323,1.396],[-64.352,1.391],[-64.35,1.37]],[[-65.038,1.138],[-65.02,1.14],[-64.84,1.27],[-64.73,1.25],[-64.609,1.349],[-64.9,1.3],[-65.038,1.138]],[[-65.2,0.92],[-65.187,0.965],[-65.228,0.918],[-65.2,0.92]],[[-65.59,0.69],[-65.52,0.65],[-65.514,0.658],[-65.548,0.792],[-65.59,0.69]],[[-65.639,0.977],[-65.595,0.979],[-65.6,1.0],[-65.639,0.977]],[[-66.41,0.8],[-66.16,0.73],[-66.16,0.73],[-66.55,0.925],[-66.41,0.8]],[[-66.9,1.5],[-66.9,1.216],[-66.88,1.22],[-66.731,1.087],[-67.2,2.4],[-66.9,1.5]],[[-67.09,1.18],[-66.985,1.2],[-67.09,1.2],[-67.09,1.18]],[[-67.356,2.1],[-67.34,2.09],[-67.267,1.953],[-67.3,2.1],[-67.356,2.1]],[[-67.784,1.854],[-67.471,2.1],[-67.6,2.1],[-67.784,1.854]],[[-68.168,1.966],[-68.03,1.78],[-67.93,1.74],[-67.928,1.742],[-68.1,2.0],[-68.168,1.966]],[[-68.273,1.846],[-68.234,1.933],[-68.3,1.9],[-68.273,1.846]],[[-68.16,1.72],[-68.252,1.805],[-68.21,1.72],[-68.16,1.72]],[[-69.9,1.7],[-69.9,1.1],[-69.851,1.1],[-69.86,1.71],[-69.58,1.77],[-69.35,1.72],[-68.46,1.72],[-69.5,1.8],[-69.9,1.7]],[[-69.15,0.87],[-69.255,1.01],[-69.162,0.824],[-69.15,0.87]],[[-69.3,0.62],[-69.14,0.64],[-69.173,0.693],[-69.392,0.671],[-69.3,0.62]],[[-70.1,-0.2],[-69.78,-0.392],[-70.07,-0.16],[-70.05,0.59],[-69.671,0.643],[-70.1,0.6],[-70.1,-0.2]],[[-69.4,-1.18],[-69.417,-1.108],[-69.591,-2.221],[-69.4,-1.18]],[[-70.0,-4.3],[-70.14,-4.26],[-70.05,-4.34],[-69.97,-4.29],[-69.945,-4.155],[-70.3,-3.8],[-70.0,-4.3]],[[-70.324,-4.207],[-70.32,-4.25],[-70.21,-4.34],[-70.14,-4.26],[-70.324,-4.207]],[[-70.53,-4.18],[-70.465,-4.167],[-70.548,-4.143],[-70.53,-4.18]],[[-70.731,-4.146],[-70.66,-4.12],[-70.59,-4.19],[-70.552,-4.142],[-70.7,-4.1],[-70.731,-4.146]],[[-72.013,-4.597],[-71.89,-4.51],[-71.36,-4.46],[-71.327,-4.443],[-71.9,-4.5],[-72.013,-4.597]],[[-72.909,-5.127],[-72.8,-5.1],[-72.9,-5.1],[-72.909,-5.127]],[[-73.193,-6.035],[-72.98,-5.65],[-72.89,-5.26],[-72.916,-5.148],[-73.2,-6.0],[-73.193,-6.035]],[[-73.783,-6.969],[-73.77,-6.9],[-73.695,-6.84],[-73.8,-6.9],[-73.783,-6.969]],[[-73.78,-7.886],[-73.71,-7.87],[-73.71,-7.79],[-73.976,-7.576],[-74.0,-7.6],[-73.78,-7.886]],[[-72.96,-9.12],[-72.97,-9.0],[-73.015,-8.937],[-73.199,-9.397],[-72.96,-9.12]],[[-72.81,-9.41],[-73.11,-9.41],[-72.551,-9.472],[-72.81,-9.41]],[[-72.197,-10.0],[-72.16,-9.88],[-72.242,-9.791],[-72.2,-10.0],[-72.197,-10.0]],[[-70.612,-9.496],[-71.3,-9.99],[-71.75,-10.0],[-71.2,-10.0],[-70.612,-9.496]],[[-70.565,-9.569],[-70.56,-9.57],[-70.52,-9.43],[-70.555,-9.455],[-70.6,-9.5],[-70.565,-9.569]],[[-70.6,-9.8],[-70.6,-9.802],[-70.54,-9.73],[-70.554,-9.7],[-70.6,-9.7],[-70.6,-9.8]],[[-70.442,-11.0],[-70.53,-10.94],[-70.6,-10.985],[-70.6,-11.0],[-70.442,-11.0]],[[-69.5,-11.0],[-69.495,-11.01],[-68.789,-11.074],[-68.8,-10.99],[-69.36,-10.94],[-69.96,-10.92],[-70.163,-11.0],[-69.6,-11.0],[-69.5,-11.0]],[[-68.363,-11.009],[-68.577,-11.093],[-68.5,-11.1],[-68.363,-11.009]],[[-68.03,-10.66],[-68.255,-10.936],[-67.877,-10.685],[-68.03,-10.66]],[[-66.09,-9.78],[-66.472,-9.865],[-65.953,-9.785],[-66.09,-9.78]],[[-65.79,-9.73],[-65.806,-9.762],[-65.746,-9.753],[-65.79,-9.73]],[[-65.4,-10.394],[-65.28,-10.21],[-65.34,-9.97],[-65.3,-9.83],[-65.4,-9.69],[-65.415,-9.702],[-65.4,-9.7],[-65.4,-10.394]],[[-65.2,-11.8],[-65.029,-11.898],[-65.07,-11.75],[-65.11,-11.69],[-65.15,-11.77],[-65.2,-11.74],[-65.17,-11.61],[-65.32,-11.48],[-65.33,-11.32],[-65.39,-11.28],[-65.3,-10.96],[-65.4,-10.81],[-65.4,-11.4],[-65.2,-11.8]],[[-64.79,-12.03],[-64.8,-12.029],[-64.787,-12.036],[-64.79,-12.03]],[[-64.47,-12.25],[-64.485,-12.246],[-64.474,-12.277],[-64.47,-12.25]],[[-63.961,-12.534],[-64.38,-12.47],[-64.423,-12.431],[-64.4,-12.5],[-63.961,-12.534]],[[-63.48,-12.56],[-63.8,-12.45],[-63.916,-12.537],[-63.467,-12.572],[-63.48,-12.56]],[[-62.887,-12.925],[-63.0,-12.83],[-63.08,-12.65],[-63.083,-12.651],[-63.0,-12.9],[-62.887,-12.925]],[[-62.69,-12.96],[-62.709,-12.965],[-62.666,-12.974],[-62.69,-12.96]],[[-61.877,-13.5],[-61.926,-13.447],[-61.9,-13.5],[-61.877,-13.5]],[[-61.05,-13.46],[-61.117,-13.5],[-61.035,-13.5],[-61.05,-13.46]],[[-60.39,-13.99],[-60.47,-13.8],[-60.588,-13.731],[-60.457,-14.082],[-60.39,-13.99]],[[-60.27,-15.1],[-60.29,-14.63],[-60.3,-14.609],[-60.3,-15.1],[-60.27,-15.1]],[[-60.467,-15.233],[-60.58,-15.1],[-60.6,-15.1],[-60.467,-15.233]],[[-59.234,-16.3],[-60.16,-16.26],[-60.2,-15.88],[-60.2,-16.3],[-59.234,-16.3]],[[-58.34,-16.29],[-58.39,-16.3],[-58.34,-16.3],[-58.34,-16.29]],[[-58.4,-17.3],[-58.22,-17.36],[-58.4,-17.24],[-58.48,-16.68],[-58.34,-16.47],[-58.34,-16.36],[-58.5,-16.6],[-58.4,-17.3]],[[-57.514,-18.232],[-57.47,-18.21],[-57.501,-18.199],[-57.5,-18.2],[-57.514,-18.232]],[[-58.078,-19.644],[-57.79,-19.06],[-57.72,-19.04],[-57.73,-18.92],[-57.78,-18.91],[-57.706,-18.68],[-58.1,-19.6],[-58.078,-19.644]],[[-57.915,-20.015],[-57.86,-19.98],[-57.956,-19.887],[-57.9,-20.0],[-57.915,-20.015]],[[-58.156,-20.167],[-58.122,-20.146],[-58.136,-20.109],[-58.156,-20.167]],[[-59.0,-19.3],[-58.216,-19.91],[-58.3,-19.7],[-59.0,-19.3]],[[-62.482,-21.57],[-61.8,-19.6],[-62.3,-20.6],[-62.482,-21.57]],[[-56.42,-27.52],[-56.6,-27.4],[-56.5,-27.6],[-56.42,-27.52]],[[-54.12,-25.49],[-54.179,-25.516],[-54.105,-25.571],[-54.12,-25.49]],[[-53.91,-25.63],[-53.97,-25.65],[-54.08,-25.55],[-54.092,-25.581],[-53.887,-25.735],[-53.91,-25.63]],[[-53.66,-26.26],[-53.776,-26.06],[-53.732,-26.548],[-53.66,-26.26]],[[-54.2,-27.275],[-54.18,-27.24],[-54.09,-27.29],[-54.006,-27.2],[-54.2,-27.2],[-54.2,-27.275]],[[-54.29,-27.43],[-54.28,-27.413],[-54.343,-27.424],[-54.29,-27.43]],[[-54.45,-27.46],[-54.454,-27.442],[-54.527,-27.454],[-54.45,-27.46]],[[-54.82,-27.54],[-54.81,-27.53],[-54.68,-27.55],[-54.606,-27.468],[-54.8,-27.5],[-54.82,-27.54]],[[-54.91,-27.74],[-54.908,-27.716],[-54.921,-27.743],[-54.91,-27.74]],[[-55.707,-28.386],[-55.68,-28.39],[-55.66,-28.33],[-55.77,-28.23],[-55.44,-28.08],[-55.424,-28.059],[-55.8,-28.2],[-55.707,-28.386]],[[-57.11,-29.77],[-56.81,-29.47],[-56.795,-29.445],[-57.139,-29.774],[-57.11,-29.77]],[[-57.32,-29.97],[-57.308,-29.935],[-57.46,-30.08],[-57.32,-29.97]],[[-58.0,-32.9],[-58.2,-31.8],[-58.104,-32.952],[-58.0,-32.9]],[[-70.1,-2.6],[-70.7,-3.8],[-70.1,-2.8],[-70.1,-2.7],[-70.1,-2.6]],[[-54.6,-31.46],[-54.82,-31.44],[-55.03,-31.27],[-55.09,-31.33],[-55.23,-31.25],[-55.35,-31.06],[-55.48,-30.95],[-55.2,-31.3],[-54.491,-31.627],[-54.6,-31.46]],[[-53.11,-32.72],[-53.116,-32.716],[-53.5,-33.1],[-53.5,-33.128],[-53.11,-32.72]],[[-57.08,-30.11],[-57.145,-30.2],[-56.713,-30.2],[-56.83,-30.1],[-57.08,-30.11]],[[-56.0,-31.08],[-56.0,-31.1],[-55.973,-31.08],[-56.0,-31.08]],[[-58.08,-20.38],[-58.1,-20.26],[-58.16,-20.26],[-58.16,-20.18],[-58.2,-20.3],[-57.975,-20.637],[-57.99,-20.43],[-58.08,-20.38]],[[-57.92,-20.67],[-57.942,-20.687],[-57.896,-20.757],[-57.86,-20.73],[-57.92,-20.67]],[[-57.824,-21.046],[-57.85,-21.198],[-57.83,-21.17],[-57.824,-21.046]],[[-57.872,-21.333],[-57.882,-21.392],[-57.86,-21.36],[-57.872,-21.333]],[[-57.99,-22.07],[-57.9,-21.69],[-57.919,-21.614],[-58.0,-22.1],[-57.932,-22.114],[-57.99,-22.07]],[[-57.872,-22.126],[-57.611,-22.178],[-57.65,-22.1],[-57.872,-22.126]],[[-57.21,-22.19],[-57.599,-22.18],[-57.0,-22.3],[-56.912,-22.271],[-57.21,-22.19]],[[-56.42,-22.07],[-56.51,-22.09],[-56.558,-22.153],[-56.4,-22.1],[-56.383,-22.107],[-56.42,-22.07]],[[-55.76,-22.39],[-55.86,-22.29],[-55.93,-22.288],[-55.9,-22.3],[-55.74,-22.46],[-55.76,-22.39]],[[-55.4,-23.98],[-55.405,-23.966],[-55.4,-24.0],[-55.353,-23.988],[-55.4,-23.98]],[[-54.672,-23.818],[-54.629,-23.807],[-54.64,-23.8],[-54.672,-23.818]],[[-54.365,-23.976],[-54.256,-24.058],[-54.25,-24.05],[-54.365,-23.976]],[[-54.26,-24.36],[-54.26,-24.36],[-54.26,-24.36],[-54.26,-24.36]],[[-54.437,-25.126],[-54.449,-25.177],[-54.43,-25.15],[-54.437,-25.126]]],[[[-76.5,-13.8],[-76.4,-13.9],[-76.5,-13.9],[-76.5,-13.8]]],[[[-80.8,-6.4],[-80.9,-6.5],[-80.9,-6.4],[-80.8,-6.4]]],[[[-77.9,2.7],[-77.8,2.7],[-77.8,2.6],[-77.9,2.7]]],[[[-77.3,4.3],[-77.3,4.2],[-77.5,4.2],[-77.3,4.3]]],[[[-61.3,8.5],[-61.2,8.6],[-61.1,8.5],[-61.3,8.5]]],[[[-60.9,9.1],[-60.9,9.0],[-61.0,9.0],[-60.9,9.1]]],[[[-62.4,9.9],[-62.3,9.9],[-62.3,9.8],[-62.4,9.9]]],[[[-62.2,10.0],[-62.3,10.0],[-62.2,10.1],[-62.2,10.0]]],[[[-75.6,10.4],[-75.5,10.3],[-75.6,10.3],[-75.6,10.4]]],[[[-64.0,10.7],[-63.9,10.8],[-63.9,10.7],[-64.0,10.7]]],[[[-65.4,11.0],[-65.2,10.9],[-65.4,10.9],[-65.4,11.0]]],[[[-64.4,11.0],[-63.9,11.2],[-63.9,10.9],[-64.4,11.0]]],[[[-66.9,11.7],[-66.9,11.8],[-66.8,11.7],[-66.9,11.7]]],[[[-81.3,13.3],[-81.4,13.3],[-81.4,13.4],[-81.3,13.3]]],[[[-49.53,-1.67],[-49.42,-1.7],[-49.52,-1.74],[-49.53,-1.67]]],[[[-51.38,-0.65],[-51.34,-0.57],[-51.3,-0.59],[-51.32,-0.52],[-51.15,-0.66],[-51.27,-1.02],[-51.33,-1.01],[-51.43,-1.19],[-51.68,-1.38],[-51.93,-1.47],[-51.87,-1.24],[-51.68,-1.1],[-51.69,-0.88],[-51.56,-0.66],[-51.35,-0.53],[-51.38,-0.65]]],[[[-48.93,-1.35],[-48.84,-1.45],[-49.07,-1.53],[-49.15,-1.4],[-49.21,-1.39],[-49.19,-1.61],[-49.29,-1.62],[-49.39,-1.48],[-49.41,-1.56],[-49.35,-1.61],[-49.44,-1.64],[-49.5,-1.5],[-49.53,-1.5],[-49.55,-1.72],[-49.69,-1.77],[-49.74,-1.58],[-49.73,-1.76],[-49.8,-1.82],[-50.0,-1.75],[-50.03,-1.66],[-50.16,-1.78],[-50.24,-1.71],[-50.23,-1.63],[-50.28,-1.6],[-50.25,-1.56],[-50.26,-1.48],[-50.29,-1.58],[-50.26,-1.74],[-50.31,-1.66],[-50.28,-1.76],[-50.37,-1.77],[-50.3,-1.8],[-50.41,-1.83],[-50.6,-1.78],[-50.59,-1.68],[-50.8,-1.45],[-50.81,-1.1],[-50.56,-1.18],[-50.62,-1.12],[-50.48,-1.04],[-50.74,-1.09],[-50.79,-1.03],[-50.74,-0.55],[-50.7,-0.63],[-50.55,-0.68],[-50.69,-0.61],[-50.7,-0.36],[-50.58,-0.19],[-50.35,-0.1],[-49.65,-0.24],[-49.39,-0.26],[-49.39,-0.18],[-49.19,-0.14],[-48.39,-0.27],[-48.37,-0.37],[-48.5,-0.74],[-48.57,-0.68],[-48.52,-0.85],[-48.67,-1.0],[-48.64,-1.08],[-48.82,-1.2],[-48.92,-1.14],[-48.79,-1.28],[-48.83,-1.42],[-48.96,-1.28],[-48.99,-1.29],[-48.99,-1.37],[-48.93,-1.35]]],[[[-50.84,-0.72],[-51.1,-0.83],[-51.07,-0.68],[-50.84,-0.56],[-50.84,-0.72]]],[[[-51.12,-0.14],[-51.17,-0.31],[-51.41,-0.46],[-51.12,-0.14]]],[[[-51.04,-0.2],[-50.95,-0.01],[-50.77,0.05],[-50.64,-0.04],[-50.7,-0.17],[-50.92,-0.33],[-51.04,-0.2]]],[[[-49.83,-0.1],[-49.74,-0.0],[-49.5,0.09],[-49.35,-0.01],[-49.46,-0.13],[-49.72,-0.15],[-49.83,-0.1]]],[[[-50.43,0.02],[-50.5,-0.02],[-50.63,0.07],[-50.64,0.17],[-50.51,0.17],[-50.43,0.02]]],[[[-49.53,0.35],[-49.87,-0.01],[-50.01,-0.05],[-50.13,0.04],[-50.35,0.05],[-50.38,0.21],[-50.11,0.22],[-50.04,0.3],[-49.86,0.3],[-49.65,0.39],[-49.53,0.35]]],[[[-50.09,0.31],[-50.17,0.26],[-50.22,0.25],[-50.14,0.33],[-50.09,0.31]]],[[[-50.42,0.17],[-50.52,0.21],[-50.37,0.62],[-50.32,0.29],[-50.42,0.17]]],[[[-50.26,0.59],[-50.12,0.57],[-50.07,0.65],[-50.04,0.51],[-50.25,0.36],[-50.31,0.41],[-50.26,0.59]]],[[[-50.11,0.92],[-50.02,0.89],[-50.11,0.75],[-50.28,0.75],[-50.23,0.86],[-50.11,0.92]]],[[[-50.1,0.96],[-49.93,1.07],[-49.96,0.97],[-50.06,0.92],[-50.1,0.96]]],[[[-50.52,2.0],[-50.4,2.12],[-50.31,1.97],[-50.42,1.86],[-50.52,2.0]]],[[[-50.46,2.19],[-50.42,2.12],[-50.51,2.11],[-50.54,2.15],[-50.46,2.19]]],[[[-58.3,7.0],[-58.4,6.9],[-58.5,6.9],[-58.3,7.0]]],[[[-60.8,8.6],[-60.7,8.8],[-60.6,8.6],[-60.8,8.6]]],[[[-60.9,8.6],[-61.0,8.6],[-61.1,8.6],[-61.2,8.6],[-60.9,8.9],[-60.7,8.9],[-60.8,8.6],[-60.9,8.6]]],[[[-60.9,9.0],[-60.8,9.0],[-61.1,8.8],[-61.0,8.9],[-60.9,9.0]]],[[[-60.7,9.2],[-60.8,9.1],[-60.8,9.2],[-60.7,9.2]]],[[[-60.8,9.2],[-60.9,9.1],[-61.0,9.1],[-60.8,9.2]]],[[[-48.54,-27.48],[-48.43,-27.4],[-48.38,-27.44],[-48.41,-27.6],[-48.56,-27.82],[-48.55,-27.58],[-48.5,-27.56],[-48.54,-27.48]]],[[[-48.49,-26.22],[-48.59,-26.42],[-48.7,-26.32],[-48.55,-26.17],[-48.49,-26.22]]],[[[-48.25,-25.36],[-48.29,-25.49],[-48.34,-25.43],[-48.25,-25.36]]],[[[-47.9,-25.04],[-47.83,-24.91],[-47.45,-24.69],[-47.9,-25.04]]],[[[-46.29,-23.99],[-46.42,-23.95],[-46.39,-23.92],[-46.29,-23.99]]],[[[-45.3,-23.72],[-45.23,-23.77],[-45.27,-23.87],[-45.21,-23.91],[-45.24,-23.97],[-45.29,-23.91],[-45.42,-23.94],[-45.45,-23.88],[-45.3,-23.72]]],[[[-44.1,-23.15],[-44.32,-23.22],[-44.37,-23.17],[-44.24,-23.07],[-44.1,-23.15]]],[[[-29.35,-20.56],[-29.33,-20.55],[-29.32,-20.57],[-29.35,-20.56]]],[[[-38.9,-13.67],[-38.98,-13.6],[-38.97,-13.5],[-39.05,-13.46],[-39.03,-13.39],[-38.9,-13.45],[-38.9,-13.67]]],[[[-38.79,-13.06],[-38.67,-12.96],[-38.7,-12.88],[-38.59,-12.99],[-38.79,-13.13],[-38.79,-13.06]]],[[[-34.85,-7.7],[-34.82,-7.75],[-34.87,-7.81],[-34.88,-7.75],[-34.85,-7.7]]],[[[-32.44,-3.85],[-32.41,-3.87],[-32.46,-3.88],[-32.44,-3.85]]],[[[-44.5,-2.95],[-44.6,-3.06],[-44.58,-2.8],[-44.48,-2.7],[-44.5,-2.95]]],[[[-42.11,-2.77],[-42.25,-2.74],[-42.2,-2.72],[-42.11,-2.77]]],[[[-42.1,-2.7],[-42.19,-2.68],[-42.04,-2.7],[-42.03,-2.74],[-42.09,-2.76],[-42.1,-2.7]]],[[[-43.76,-2.43],[-43.78,-2.51],[-43.84,-2.51],[-43.76,-2.43]]],[[[-43.56,-2.42],[-43.59,-2.42],[-43.61,-2.37],[-43.56,-2.36],[-43.56,-2.42]]],[[[-43.63,-2.25],[-43.63,-2.4],[-43.73,-2.42],[-43.72,-2.29],[-43.63,-2.25]]],[[[-49.44,-1.87],[-49.34,-1.71],[-49.29,-1.76],[-49.37,-1.9],[-49.44,-1.87]]],[[[-45.02,-1.38],[-44.97,-1.26],[-44.89,-1.27],[-44.93,-1.37],[-45.02,-1.38]]],[[[-48.34,-1.07],[-48.33,-1.21],[-48.47,-1.16],[-48.41,-1.07],[-48.34,-1.07]]],[[[-48.2,-1.01],[-48.31,-1.02],[-48.31,-0.95],[-48.19,-0.82],[-48.2,-1.01]]],[[[-47.89,-0.67],[-47.96,-0.73],[-47.98,-0.64],[-47.89,-0.67]]],[[[-47.7,-0.67],[-47.76,-0.57],[-47.66,-0.58],[-47.64,-0.69],[-47.7,-0.71],[-47.7,-0.67]]],[[[-29.35,0.85],[-29.41,0.83],[-29.38,0.89],[-29.35,0.85]]]]}}